CUTE-1 (CO-55)          
1 27844U 03031E   24059.90738209  .00000489  00000+0  23613-3 0  9998
2 27844  98.6804  68.4591 0010908 100.9343 259.3063 14.23097748 72241
CUBESAT XI-IV (CO-57)   
1 27848U 03031J   24059.94017458  .00000401  00000+0  19909-3 0  9999
2 27848  98.6836  68.7947 0010725 114.9753 245.2540 14.22563211 72050
CUBESAT XI-V            
1 28895U 05043F   24059.86253971  .00002007  00000+0  36657-3 0  9993
2 28895  98.1825 195.7089 0015579 346.4897  13.5887 14.66974110978425
CUTE-1.7+APD II (CO-65) 
1 32785U 08021C   24059.85343701  .00006015  00000+0  55281-3 0  9992
2 32785  97.7432  26.3166 0010471 341.0751  19.0079 14.95128215859205
AAUSAT-II               
1 32788U 08021F   24059.90560030  .00015024  00000+0  87862-3 0  9997
2 32788  97.5879  40.3544 0006301 168.5719 191.5656 15.11945402861787
SEEDS II (CO-66)        
1 32791U 08021J   24059.84793379  .00008293  00000+0  65065-3 0  9999
2 32791  97.6853  31.9208 0004636 313.9868  46.0973 15.01185361860185
SWISSCUBE               
1 35932U 09051B   24059.62849982  .00001365  00000+0  30373-3 0  9998
2 35932  98.4876 300.6985 0006406 303.3055  56.7530 14.58600965766584
BEESAT-1                
1 35933U 09051C   24059.89000908  .00001165  00000+0  26192-3 0  9997
2 35933  98.4803 302.0115 0004871 319.1802  40.9031 14.58396891766698
ITUPSAT1                
1 35935U 09051E   24059.62173653  .00001101  00000+0  25344-3 0  9996
2 35935  98.4903 301.5773 0007254 323.2693  36.8007 14.57386290766336
TISAT 1                 
1 36799U 10035E   24059.90655488  .00006076  00000+0  49081-3 0  9991
2 36799  98.1086 304.7411 0007223 209.8574 150.2237 15.00200606740660
M-CUBED & EXP-1 PRIME   
1 37855U 11061F   24060.13029728  .00057246  00000+0  92075-3 0  9990
2 37855 101.6840 176.7783 0076758 319.8193  39.7382 15.49439275676477
AEROCUBE 4.5A           
1 38767U 12048K   24059.89809932  .00010042  00000+0  61003-3 0  9993
2 38767  64.6622 304.5009 0103682  58.6750 302.4467 15.06498655243982
AEROCUBE 4.5B           
1 38768U 12048L   24059.92035786  .00017554  00000+0  78955-3 0  9995
2 38768  64.6585 236.9737 0085346  46.9464 313.8765 15.17966498244801
STRAND-1                
1 39090U 13009E   24059.53376177  .00000484  00000+0  18160-3 0  9997
2 39090  98.3820 250.8333 0008230 214.3272 145.7384 14.35910960576526
BRITE-AUSTRIA           
1 39091U 13009F   24060.04885527  .00000313  00000+0  12320-3 0  9993
2 39091  98.3858 250.5956 0009601 220.8770 139.1697 14.35696787576616
NEE-01 PEGASO           
1 39151U 13018B   24059.87115091  .00003256  00000+0  39014-3 0  9999
2 39151  98.0223 176.0994 0015983  39.7354 320.5027 14.84707962585755
ESTCUBE 1               
1 39161U 13021C   24060.13062146  .00001934  00000+0  29023-3 0  9997
2 39161  97.8404 129.9234 0008352 215.5326 144.5328 14.75660109581040
POPACS 1                
1 39268U 13055D   24059.88119996  .00029612  00000+0  55909-3 0  9993
2 39268  80.9816 275.8302 0440775  81.8969 283.1988 14.83963199544282
POPACS 2                
1 39269U 13055E   24059.78110970  .00016857  00000+0  40677-3 0  9999
2 39269  81.0082 357.7854 0566828 295.7876  58.5878 14.52602220539695
POPACS 3                
1 39270U 13055F   24059.69838663  .00011385  00000+0  31567-3 0  9996
2 39270  81.0095  45.0720 0641521  68.4737 298.3562 14.33855255517254
ZACUBE-1 (TSHEPISOSAT)  
1 39417U 13066B   24059.81255030  .00003683  00000+0  40027-3 0  9999
2 39417  97.7221  18.4529 0052784 160.0428 200.2869 14.87673931555315
WNISAT-1                
1 39423U 13066H   24060.16190038  .00000821  00000+0  16671-3 0  9991
2 39423  97.6777 263.3010 0170836 351.9681   7.8788 14.54862398544796
TRITON-1                
1 39427U 13066M   24060.13080827  .00003184  00000+0  46102-3 0  9993
2 39427  97.8430 341.7239 0106271  73.3020 287.9820 14.72967233550346
DELFI-N3XT              
1 39428U 13066N   24059.73444697  .00005858  00000+0  78084-3 0  9991
2 39428  97.8394 341.1315 0106304  82.9505 278.3780 14.76083381549935
GOMX-1                  
1 39430U 13066Q   24060.15545391  .00002216  00000+0  38032-3 0  9999
2 39430  97.7488 301.1025 0140526 238.9993 119.7345 14.63378504547093
CUBEBUG-2 (LO-74)       
1 39440U 13066AA  24059.84661908  .00004276  00000+0  52335-3 0  9997
2 39440  97.8035   6.0668 0069842 271.3610  87.9603 14.81998439552134
NEE-02 KRYSAOR          
1 39441U 13066AB  24059.82088527  .00002953  00000+0  38698-3 0  9992
2 39441  97.8133   2.2906 0074022 291.9574  67.3783 14.79210418551760
FUNCUBE-1 (AO-73)       
1 39444U 13066AE  24059.83115513  .00005627  00000+0  57372-3 0  9993
2 39444  97.7077  21.3527 0051097 142.3681 218.1130 14.90078075553819
UWE-3                   
1 39446U 13066AG  24059.85044198  .00003380  00000+0  39304-3 0  9996
2 39446  97.7699  12.1350 0060997 217.2877 142.4096 14.84655087552479
BRITE-CA1 (TORONTO)     
1 40020U 14033L   24059.98247418  .00001449  00000+0  24228-3 0  9998
2 40020  97.8576 201.1059 0085056  80.9650 280.1170 14.68946085518947
DUCHIFAT-1              
1 40021U 14033M   24059.88909434  .00010795  00000+0  79053-3 0  9991
2 40021  98.0830  38.4840 0015290 106.9206 253.3696 15.03660793527687
NANOSATC-BR1            
1 40024U 14033Q   24059.88061690  .00006924  00000+0  55271-3 0  9992
2 40024  98.0605  27.7718 0011119 160.9842 199.1798 15.00573739526844
QB50P1                  
1 40025U 14033R   24059.85251765  .00005737  00000+0  49590-3 0  9992
2 40025  98.0308  17.2897 0010977 151.6787 208.5033 14.97574618526505
QB50P2                  
1 40032U 14033Y   24059.86720625  .00006089  00000+0  54082-3 0  9990
2 40032  97.9962   9.6860 0011053 150.0765 210.1089 14.96481960526312
PERSEUS-M2              
1 40037U 14033AD  24059.77243609  .00002013  00000+0  21570-3 0  9996
2 40037  97.9219 350.2820 0013030 189.3083 170.7895 14.89746442525538
PERSEUS-M1              
1 40039U 14033AF  24059.77962927  .00001932  00000+0  20866-3 0  9995
2 40039  97.9038 346.6502 0012837 188.7572 171.3423 14.89478409525398
POLYITAN-1              
1 40042U 14033AJ  24059.82567040  .00008393  00000+0  68711-3 0  9991
2 40042  98.0400  20.0687 0014499 142.0542 218.1705 14.99495219526438
TIGRISAT                
1 40043U 14033AK  24059.90668985  .00002355  00000+0  32518-3 0  9999
2 40043  97.6820 227.5022 0055261 300.0272  59.5463 14.78015081521317
AEROCUBE 6A             
1 40045U 14033AM  24059.72417097  .00005012  00000+0  62909-3 0  9997
2 40045  97.6622 237.7102 0051185 280.9973  78.5485 14.81657446521570
AEROCUBE 6B             
1 40046U 14033AN  24059.75542973  .00005364  00000+0  66012-3 0  9992
2 40046  97.6577 236.3562 0049764 276.7678  82.7874 14.82492340521626
UKUBE-1                 
1 40074U 14037F   24059.74152727  .00006393  00000+0  64065-3 0  9999
2 40074  98.3410 343.1644 0005930  76.3625 283.8252 14.91731276522452
BRITE-PL2 (HEWELIUSZ)   
1 40119U 14049B   24059.84301006  .00002251  00000+0  25041-3 0  9999
2 40119  97.8778 160.1192 0016243   8.9337 351.2165 14.88056769516312
CP10 (EXOCUBE)          
1 40380U 15003E   24059.94265275  .00057141  00000+0  73587-3 0  9994
2 40380  99.1041  54.4110 0061925 135.9727 224.6478 15.56527212502302
AEROCUBE 5C             
1 40965U 15058B   24059.89467791  .00005063  00000+0  49668-3 0  9993
2 40965  64.7732 336.8558 0182455 342.3550  17.1271 14.81633688240845
AEROCUBE 7              
1 40966U 15058C   24059.90045399  .00006263  00000+0  59306-3 0  9995
2 40966  64.7712 331.5270 0178305 342.0411  17.4446 14.83187931240898
VELOX-II                
1 41171U 15077F   24059.69816597  .00060632  00000+0  11327-2 0  9997
2 41171  14.9884 191.2885 0002073 277.1550  82.8540 15.46859567454683
HORYU-4                 
1 41340U 16012D   24059.82031132  .00009580  00000+0  52034-3 0  9990
2 41340  31.0037 326.5762 0011470 302.9805  56.9731 15.13164871441556
E-ST@R-II               
1 41459U 16025D   24060.20464785  .00112342  00000+0  12036-2 0  9991
2 41459  98.1438 297.0682 0051861 267.9550  91.5766 15.61763632432505
RAVAN                   
1 41849U 16067B   24059.90009149  .00008772  00000+0  52389-3 0  9991
2 41849  98.0563 231.4539 0014314  42.3217 317.9113 15.11283218399466
CELTEE 1                
1 41850U 16067C   24059.97954206  .00005308  00000+0  38064-3 0  9999
2 41850  98.0912 224.0756 0001143 127.8393 232.2935 15.04809530398996
OPTICUBE 04             
1 41851U 16067D   24059.98030812  .00003352  00000+0  26199-3 0  9992
2 41851  98.0643 220.5124 0018032  62.8532 297.4528 15.01701918398849
AEROCUBE 8D             
1 41852U 16067E   24059.91266671  .00006213  00000+0  43400-3 0  9993
2 41852  98.0957 223.5032 0006182 109.7118 250.4774 15.05712945398942
AEROCUBE 8C             
1 41853U 16067F   24059.98810950  .00006493  00000+0  45403-3 0  9991
2 41853  98.0761 222.4407 0008966  50.0551 310.1460 15.05637879398949
PROMETHEUS 2-1          
1 41854U 16067G   24060.03044745  .00011803  00000+0  67807-3 0  9994
2 41854  98.0910 228.2162 0014243  68.3327 291.9417 15.12595306399211
PROMETHEUS 2-3          
1 41855U 16067H   24059.43065744  .00013068  00000+0  75120-3 0  9991
2 41855  98.0833 227.1761 0012121  79.8574 280.4021 15.12571480399124
DIDO-2                  
1 42000U 17008BE  24060.14180017  .00058062  00000+0  73128-3 0  9990
2 42000  97.1588 119.4082 0004606 169.6276 190.5077 15.59441007391675
AALTO-1                 
1 42775U 17036L   24059.82217262  .00039807  00000+0  67509-3 0  9998
2 42775  97.1223  89.4671 0004697 232.5062 127.5764 15.51394149372075
URSA MAIOR              
1 42776U 17036M   24059.82022218  .00060484  00000+0  80356-3 0  9994
2 42776  97.1210  92.1417 0004348 216.1512 143.9451 15.58010647372230
DIAMOND RED             
1 42783U 17036U   24060.03852740  .00114080  00000+0  90154-3 0  9997
2 42783  97.1100  97.7596 0003243 203.3024 156.8093 15.71019414372628
